OSCAR 7 (AO-7)          
1 07530U 74089B   26194.88823126 -.00000028  00000+0  11201-3 0  9991
2 07530 101.9905 208.4131 0012657  80.7682  39.3468 12.53698534363868
PHASE 3B (AO-10)        
1 14129U 83058B   26194.10401075 -.00000187  00000+0  00000+0 0  9996
2 14129  25.9345 215.2934 6002223 122.7887 309.2966  2.05872336296023
UOSAT 2 (UO-11)         
1 14781U 84021B   26194.86752083  .00000684  00000+0  75115-4 0  9997
2 14781  97.8075 160.1477 0009198  95.1181 265.1087 14.90847126261108
LUSAT (LO-19)           
1 20442U 90005G   26194.62424061  .00000043  00000+0  31846-4 0  9995
2 20442  98.8848 217.1575 0012493 125.7335 234.5012 14.34130464906183
EYESAT A (AO-27)        
1 22825U 93061C   26194.78063583  .00000039  00000+0  31841-4 0  9992
2 22825  98.6869 262.1829 0008838  29.8148 330.3536 14.30948835710800
ITAMSAT (IO-26)         
1 22826U 93061D   26194.75211007  .00000033  00000+0  29428-4 0  9998
2 22826  98.6816 262.0745 0009048  13.5433 346.5991 14.31376405711118
RADIO ROSTO (RS15)      
1 23439U 94085A   26194.81139653 -.00000039  00000+0  11302-3 0  9997
2 23439  64.8153 260.1587 0156869 358.9629   1.0949 11.27583533298905
JAS-2 (FO-29)           
1 24278U 96046B   26194.55731462  .00000020  00000+0  55297-4 0  9996
2 24278  98.5220  39.8146 0350433  28.1834 333.7792 13.53275527476737
TECHSAT 1B (GO-32)      
1 25397U 98043D   26194.89716845  .00000014  00000+0  26180-4 0  9995
2 25397  99.0084 188.3313 0002155 116.5824 243.5575 14.24433207455134
ISS (ZARYA)             
1 25544U 98067A   26194.76644922  .00004013  00000+0  80956-4 0  9991
2 25544  51.6307 168.5527 0006711 292.2587  67.7689 15.49001429575878
PCSAT (NO-44)           
1 26931U 01043C   26194.70047986  .00000015  00000+0  36493-4 0  9996
2 26931  67.0493 175.6955 0005934 266.5322  93.5101 14.31964661294248
SAUDISAT 1C (SO-50)     
1 27607U 02058C   26194.79058773  .00000373  00000+0  62101-4 0  9991
2 27607  64.5517  46.6715 0074574 257.5378 101.7377 14.83096814268405
CUTE-1 (CO-55)          
1 27844U 03031E   26194.45028445  .00000157  00000+0  86848-4 0  9996
2 27844  98.6742 202.6793 0010803 107.1223 253.1140 14.24350896195418
CUBESAT XI-IV (CO-57)   
1 27848U 03031J   26194.52222380  .00000129  00000+0  75510-4 0  9995
2 27848  98.6773 202.4416 0010486 123.7879 236.4299 14.23634003195125
MOZHAETS 4 (RS22)       
1 27939U 03042A   26194.84360753  .00001060  00000+0  17128-3 0  9995
2 27939  98.3472  19.9572 0011110 177.4266 307.7969 14.73514730219474
CUBESAT XI-V            
1 28895U 05043F   26194.42545375  .00000720  00000+0  12097-3 0  9991
2 28895  98.3010 350.6030 0015194 120.4468 239.8242 14.72699773105615
CUTE-1.7+APD II (CO-65) 
1 32785U 08021C   26194.89540332  .00003221  00000+0  20405-3 0  9993
2 32785  97.8288 176.8764 0007148 304.7170  55.3385 15.09693670989225
SEEDS II (CO-66)        
1 32791U 08021J   26194.50259132  .00010586  00000+0  32808-3 0  9995
2 32791  97.7522 193.6748 0002885 159.9785 200.1570 15.33629018991328
YUBILEINY (RS30)        
1 32953U 08025A   26194.89766071 -.00000004  00000+0 -97929-4 0  9998
2 32953  82.5054 338.8234 0018588 251.9869 107.9185 12.43180743823017
KKS-1 (KISEKI)          
1 33499U 09002H   26194.83769865  .00000665  00000+0  88322-4 0  9996
2 33499  98.1175 117.7022 0007310 193.6951 166.4065 14.83187360940143
SWISSCUBE               
1 35932U 09051B   26194.71417647  .00000487  00000+0  10573-3 0  9993
2 35932  98.4010 103.0624 0007797 122.9504 237.2447 14.62529232893033
BEESAT-1                
1 35933U 09051C   26194.73748186  .00000394  00000+0  88826-4 0  9995
2 35933  98.3937 102.6657 0006039 133.6539 226.5163 14.61760532893065
ITUPSAT1                
1 35935U 09051E   26194.68314044  .00000364  00000+0  85196-4 0  9997
2 35935  98.4020 101.7741 0007976 147.4965 212.6727 14.60477451892607
XIWANG-1 (HOPE-1)       
1 36122U 09072B   26194.84357238  .00000217  00000+0  68379-3 0  9999
2 36122 100.4029 148.2513 0007513 167.7258 192.4039 13.16440662796517
O/OREOS (USA 219)       
1 37224U 10062C   26194.84908230  .00001132  00000+0  11239-3 0  9998
2 37224  71.9696  19.9384 0013908   7.7163 352.4219 14.93848747120629
JUGNU                   
1 37839U 11058B   26194.06098558  .00000348  00000+0  42399-4 0  9993
2 37839  19.9592 151.2304 0018498   2.9049  74.5783 14.13783158762692
SRMSAT                  
1 37841U 11058D   26194.45621951  .00000344  00000+0  42889-4 0  9998
2 37841  19.9713 260.4725 0011810 132.1672 338.6137 14.11580880761533
STRAND-1                
1 39090U 13009E   26194.72101667  .00000137  00000+0  60330-4 0  9992
2 39090  98.3932  14.3039 0009339 145.1718 215.0081 14.37178346700871
ZACUBE-1 (TSHEPISOSAT)  
1 39417U 13066B   26194.86830117  .00001337  00000+0  10671-3 0  9997
2 39417  97.8009 157.3372 0043946 159.4655 200.8348 15.01325493684734
GOMX-1                  
1 39430U 13066Q   26194.80944737  .00000861  00000+0  13575-3 0  9997
2 39430  97.6473  33.5927 0128418 352.6714   7.2612 14.69541249673827
